{"fetched_at":"2026-07-14T17:40:25.184Z","source":"https://celestrak.org/NORAD/elements/gp.php?GROUP=planet&FORMAT=JSON","constellation":"tanager","records":[{"OBJECT_NAME":"TANAGER-1","OBJECT_ID":"2024-149AR","EPOCH":"2026-07-13T04:54:41.270112","CLASSIFICATION_TYPE":"U","MEAN_MOTION":15.4393883,"ECCENTRICITY":0.0001097,"INCLINATION":97.2326,"RA_OF_ASC_NODE":288.3495,"ARG_OF_PERICENTER":157.8296,"MEAN_ANOMALY":202.3,"EPHEMERIS_TYPE":0,"NORAD_CAT_ID":60507,"ELEMENT_SET_NO":999,"REV_AT_EPOCH":10705,"BSTAR":0.0000062927,"MEAN_MOTION_DOT":0.00000202,"MEAN_MOTION_DDOT":0}]}
